1 19008U 84088G   18129.98557308 +.00000087 +00000-0 +31144-4 0  9994
2 19008 028.7372 019.2276 1822429 028.7102 340.2573 11.14131990238494
1 19008U 84088G   18130.97190297 +.00000101 +00000-0 +40012-4 0  9996
2 19008 028.7369 015.8015 1822445 034.2654 336.3020 11.14132053238602
1 19008U 84088G   18131.77888724  .00000131  00000-0  58626-4 0  9997
2 19008  28.7368  12.9984 1822467  38.8108 333.0148 11.14132301238670
1 19008U 84088G   18132.76518337 +.00000144 +00000-0 +67211-4 0  9991
2 19008 028.7367 009.5725 1822493 044.3665 328.9252 11.14132491238807
1 19008U 84088G   18133.75145656 +.00000172 +00000-0 +84395-4 0  9994
2 19008 028.7365 006.1466 1822517 049.9221 324.7454 11.14132846238910
1 19008U 84088G   18134.73770407  .00000202  00000-0  10231-3 0  9992
2 19008  28.7365   2.7211 1822550  55.4774 320.4636 11.14133251239009
1 19008U 84088G   18138.95130897 +.00000262 +00000-0 +13770-3 0  9990
2 19008 028.7363 348.0864 1822630 079.2078 300.7355 11.14134984239471
1 19008U 84088G   18139.93737053 +.00000249 +00000-0 +12941-3 0  9990
2 19008 028.7362 344.6615 1822630 084.7599 295.7171 11.14135315239608
1 19008U 84088G   18140.83375204 +.00000221 +00000-0 +11252-3 0  9991
2 19008 028.7360 341.5475 1822617 089.8075 291.0017 11.14135414239705
1 19008U 84088G   18143.61228143 +.00000225 +00000-0 +11237-3 0  9996
2 19008 028.7356 331.8969 1822638 105.4548 275.3776 11.14136528240013
1 19008U 84088G   18143.70190394  .00000244  00000-0  12374-3 0  9996
2 19008  28.7355 331.5853 1822640 105.9623 274.8440 11.14136782240006
